[{"OBJECT_NAME":"STARLINK-5179","OBJECT_ID":"2022-136BD","EPOCH":"2026-03-09T21:18:53.119584","MEAN_MOTION":15.0882578,"ECCENTRICITY":0.00015662,"INCLINATION":53.2184,"RA_OF_ASC_NODE":333.2456,"ARG_OF_PERICENTER":125.2828,"MEAN_ANOMALY":234.8311,"EPHEMERIS_TYPE":0,"CLASSIFICATION_TYPE":"U","NORAD_CAT_ID":54102,"ELEMENT_SET_NO":999,"REV_AT_EPOCH":18701,"BSTAR":-0.00018952908,"MEAN_MOTION_DOT":-3.302e-5,"MEAN_MOTION_DDOT":0},{"OBJECT_NAME":"COSMOS 2251 DEB","OBJECT_ID":"1993-036BLZ","EPOCH":"2026-03-06T21:00:05.608224","MEAN_MOTION":14.97960044,"ECCENTRICITY":0.00597249,"INCLINATION":73.9479,"RA_OF_ASC_NODE":151.0759,"ARG_OF_PERICENTER":149.7591,"MEAN_ANOMALY":210.7065,"EPHEMERIS_TYPE":0,"CLASSIFICATION_TYPE":"U","NORAD_CAT_ID":37496,"ELEMENT_SET_NO":999,"REV_AT_EPOCH":67275,"BSTAR":0.0022465948,"MEAN_MOTION_DOT":0.00027564,"MEAN_MOTION_DDOT":0}]
